NORAD_CAT_ID,OBJECT_NAME,OBJECT_TYPE,EPOCH,MEAN_MOTION,ECCENTRICITY,INCLINATION,RA_OF_ASC_NODE,ARG_OF_PERICENTER,MEAN_ANOMALY,BSTAR,MEAN_MOTION_DOT,MEAN_MOTION_DDOT,TLE_LINE0,TLE_LINE1,TLE_LINE2,SEMIMAJOR_AXIS,PERIOD,APOGEE,PERIGEE,DECAYED
53849.0,STARLINK-4770,PAYLOAD,2022-11-29 06:00:00,15.49730863,0.0001306,53.2169,267.3976,75.4514,70.9593,-0.022723,-0.01171555,0.0,0 STARLINK-4770,1 53849U 22114AH  22333.25001157 -.01171555  00000-0 -22723-1 0  9997,2 53849  53.2169 267.3976 0001306  75.4514  70.9593 15.49730863 11778,6795.65,92.919,418.402,416.627,0.0
53849.0,STARLINK-4770,PAYLOAD,2022-11-29 14:00:01,15.48894572,0.0001272,53.2171,265.8039,67.2356,139.4585,-0.022728,-0.01123872,0.0,0 STARLINK-4770,1 53849U 22114AH  22333.58335648 -.01123872  00000-0 -22728-1 0  9992,2 53849  53.2171 265.8039 0001272  67.2356 139.4585 15.48894572  1306,6798.096,92.97,420.825,419.096,0.0
53849.0,STARLINK-4770,PAYLOAD,2022-11-29 22:00:00,15.48100228,0.0001259,53.2169,264.2142,64.8232,201.0261,-0.023969,-0.01166968,0.0,0 STARLINK-4770,1 53849U 22114AH  22333.91667824 -.01166968  00000-0 -23969-1 0  9994,2 53849  53.2169 264.2142 0001259  64.8232 201.0261 15.48100228  1307,6800.420999999999,93.017,423.142,421.43,0.0
53849.0,STARLINK-4770,PAYLOAD,2022-11-30 14:00:01,15.46455606,0.0001205,53.2175,261.0402,53.1461,328.3007,-0.024828,-0.01143422,0.0,0 STARLINK-4770,1 53849U 22114AH  22334.58335648 -.01143422  00000-0 -24828-1 0  9999,2 53849  53.2175 261.0402 0001205  53.1461 328.3007 15.46455606 11970,6805.241,93.116,427.926,426.286,0.0
53849.0,STARLINK-4770,PAYLOAD,2022-11-30 22:00:00,15.45643304,0.0001354,53.2176,259.4569,52.217,25.4599,-0.025584,-0.01145413,0.0,0 STARLINK-4770,1 53849U 22114AH  22334.91667824 -.01145413  00000-0 -25584-1 0  9992,2 53849  53.2176 259.4569 0001354  52.2170  25.4599 15.45643304  1308,6807.626,93.165,430.412,428.569,0.0
53849.0,STARLINK-4770,PAYLOAD,2022-12-01 06:00:00,15.44823957,0.0001492,53.2173,257.8763,50.8417,82.154,-0.02607,-0.01135634,0.0,0 STARLINK-4770,1 53849U 22114AH  22335.25001157 -.01135634  00000-0 -26070-1 0  9996,2 53849  53.2173 257.8763 0001492  50.8417  82.1540 15.44823957 12080,6810.031999999997,93.215,432.913,430.881,0.0
53849.0,STARLINK-4770,PAYLOAD,2022-12-01 14:00:01,15.44012956,0.0001281,53.2174,256.2944,81.4498,105.8858,-0.026914,-0.01139847,0.0,0 STARLINK-4770,1 53849U 22114AH  22335.58334491 -.01139847  00000-0 -26914-1 0  9999,2 53849  53.2174 256.2944 0001281  81.4498 105.8858 15.44012956  1307,6812.417,93.263,435.155,433.409,0.0
53849.0,STARLINK-4770,PAYLOAD,2022-12-01 22:00:00,15.43223471,0.0001245,53.2164,254.7167,79.8117,160.8735,-0.02853,-0.01173073,0.0,0 STARLINK-4770,1 53849U 22114AH  22335.91667824 -.01173073  00000-0 -28530-1 0  9990,2 53849  53.2164 254.7167 0001245  79.8117 160.8735 15.43223471 12183,6814.74,93.311,437.453,435.757,0.0
53849.0,STARLINK-4770,PAYLOAD,2022-12-02 14:00:01,15.41580477,0.0001114,53.2168,251.5663,70.1523,274.3312,-0.029574,-0.01152282,0.0,0 STARLINK-4770,1 53849U 22114AH  22336.58334491 -.01152282  00000-0 -29574-1 0  9993,2 53849  53.2168 251.5663 0001114  70.1523 274.3312 15.41580477  1307,6819.581,93.411,442.206,440.687,0.0
53849.0,STARLINK-4770,PAYLOAD,2022-12-02 22:00:00,15.40795932,0.0001044,53.2165,249.9942,82.1714,312.7254,-0.031478,-0.01190888,0.0,0 STARLINK-4770,1 53849U 22114AH  22336.91667824 -.01190888  00000-0 -31478-1 0  9999,2 53849  53.2165 249.9942 0001044  82.1714 312.7254 15.40795932  1307,6821.896,93.458,444.473,443.049,0.0
53849.0,STARLINK-4770,PAYLOAD,2022-12-03 00:00:00,15.40560052,0.0001243,53.2168,249.6021,78.1354,59.2321,-0.030479,-0.01148108,0.0,0 STARLINK-4770,1 53849U 22114AH  22337.00001157 -.01148108  00000-0 -30479-1 0  9999,2 53849  53.2168 249.6021 0001243  78.1354  59.2321 15.40560052 12359,6822.592,93.473,445.305,443.609,0.0
53849.0,STARLINK-4770,PAYLOAD,2022-12-03 14:00:01,15.3913592,0.0001308,53.217,246.8553,65.3682,67.4686,-0.031927,-0.01147241,0.0,0 STARLINK-4770,1 53849U 22114AH  22337.58334491 -.01147241  00000-0 -31927-1 0  9998,2 53849  53.2170 246.8553 0001308  65.3682  67.4686 15.39135920  1303,6826.8,93.559,449.5580000000001,447.772,0.0
53849.0,STARLINK-4770,PAYLOAD,2022-12-03 22:00:00,15.38347355,0.0001317,53.2167,245.2892,76.6536,103.665,-0.033818,-0.01180782,0.0,0 STARLINK-4770,1 53849U 22114AH  22337.91667824 -.01180782  00000-0 -33818-1 0  9992,2 53849  53.2167 245.2892 0001317  76.6536 103.6650 15.38347355  1301,6829.1330000000025,93.607,451.897,450.099,0.0
53849.0,STARLINK-4770,PAYLOAD,2022-12-04 14:00:01,15.36686695,0.0001229,53.2173,242.1614,77.4661,194.925,-0.034184,-0.01134786,0.0,0 STARLINK-4770,1 53849U 22114AH  22338.58334491 -.01134786  00000-0 -34184-1 0  9997,2 53849  53.2173 242.1614 0001229  77.4661 194.9250 15.36686695  1306,6834.052,93.708,456.757,455.077,0.0
53849.0,STARLINK-4770,PAYLOAD,2022-12-04 22:00:00,15.35907084,0.0001162,53.2168,240.6015,87.4654,229.4692,-0.036605,-0.01180368,0.0,0 STARLINK-4770,1 53849U 22114AH  22338.91667824 -.01180368  00000-0 -36605-1 0  9990,2 53849  53.2168 240.6015 0001162  87.4654 229.4692 15.35907084  1308,6836.365,93.756,459.024,457.435,0.0
53849.0,STARLINK-4770,PAYLOAD,2022-12-05 06:00:00,15.35083664,0.0001204,53.2165,239.044,62.5063,298.0155,-0.037107,-0.01166548,0.0,0 STARLINK-4770,1 53849U 22114AH  22339.25001157 -.01166548  00000-0 -37107-1 0  9991,2 53849  53.2165 239.0440 0001204  62.5063 298.0155 15.35083664 12693,6838.809,93.806,461.497,459.851,0.0
53849.0,STARLINK-4770,PAYLOAD,2022-12-05 14:00:01,15.34258816,0.0001256,53.2169,237.4853,54.104,349.0947,-0.037626,-0.01153263,0.0,0 STARLINK-4770,1 53849U 22114AH  22339.58335648 -.01153263  00000-0 -37626-1 0  9998,2 53849  53.2169 237.4853 0001256  54.1040 349.0947 15.34258816  1300,6841.26,93.856,463.984,462.266,0.0
53849.0,STARLINK-4770,PAYLOAD,2022-12-05 22:00:01,15.33434566,0.0001428,53.2176,235.9316,53.0695,31.7613,-0.038102,-0.01138941,0.0,0 STARLINK-4770,1 53849U 22114AH  22339.91668981 -.01138941  00000-0 -38102-1 0  9990,2 53849  53.2176 235.9316 0001428  53.0695  31.7613 15.33434566  1302,6843.7109999999975,93.907,466.554,464.599,0.0
53849.0,STARLINK-4770,PAYLOAD,2022-12-06 08:00:01,15.3242093,0.0001394,53.2167,233.9906,70.6219,154.8031,-0.039538,-0.0114399,0.0,0 STARLINK-4770,1 53849U 22114AH  22340.33334491 -.01143990  00000-0 -39538-1 0  9998,2 53849  53.2167 233.9906 0001394  70.6219 154.8031 15.32420930 12867,6846.729,93.969,469.548,467.639,0.0
53849.0,STARLINK-4770,PAYLOAD,2022-12-06 14:00:01,15.31811771,0.0001437,53.2168,232.8266,61.5274,103.6233,-0.040349,-0.01145133,0.0,0 STARLINK-4770,1 53849U 22114AH  22340.58335648 -.01145133  00000-0 -40349-1 0  9993,2 53849  53.2168 232.8266 0001437  61.5274 103.6233 15.31811771  1302,6848.544,94.006,471.393,469.425,0.0
53849.0,STARLINK-4770,PAYLOAD,2022-12-06 22:00:00,15.31049889,0.0001429,53.2169,231.2784,81.5515,122.2022,-0.044005,-0.01229539,0.0,0 STARLINK-4770,1 53849U 22114AH  22340.91667824 -.01229539  00000-0 -44005-1 0  9990,2 53849  53.2169 231.2784 0001429  81.5515 122.2022 15.31049889  1308,6850.816,94.053,473.66,471.702,0.0
53849.0,STARLINK-4770,PAYLOAD,2022-12-07 08:00:01,15.29976855,0.0001176,53.2172,229.3446,67.1948,273.5803,-0.042515,-0.01139691,0.0,0 STARLINK-4770,1 53849U 22114AH  22341.33334491 -.01139691  00000-0 -42515-1 0  9991,2 53849  53.2172 229.3446 0001176  67.1948 273.5803 15.29976855 13011,6854.018,94.119,476.689,475.077,0.0
53849.0,STARLINK-4770,PAYLOAD,2022-12-08 00:00:00,15.28355483,0.0001193,53.2171,226.2577,78.5673,334.2145,-0.045057,-0.01147885,0.0,0 STARLINK-4770,1 53849U 22114AH  22342.00001157 -.01147885  00000-0 -45057-1 0  9994,2 53849  53.2171 226.2577 0001193  78.5673 334.2145 15.28355483  1301,6858.865,94.219,481.548,479.912,0.0
53849.0,STARLINK-4770,PAYLOAD,2022-12-08 08:00:01,15.27534164,0.0001215,53.2174,224.716,80.53699999999998,6.7868,-0.045708,-0.01136526,0.0,0 STARLINK-4770,1 53849U 22114AH  22342.33334491 -.01136526  00000-0 -45708-1 0  9993,2 53849  53.2174 224.7160 0001215  80.5370   6.7868 15.27534164 13172,6861.323,94.27,484.022,482.355,0.0
53849.0,STARLINK-4770,PAYLOAD,2022-12-08 14:00:01,15.26942515,0.0001186,53.2163,223.5608,64.992,317.5842,-0.04763,-0.01176452,0.0,0 STARLINK-4770,1 53849U 22114AH  22342.58334491 -.01176452  00000-0 -47630-1 0  9998,2 53849  53.2163 223.5608 0001186  64.9920 317.5842 15.26942515  1307,6863.096,94.306,485.775,484.147,0.0
53849.0,STARLINK-4770,PAYLOAD,2022-12-08 22:00:01,15.26110502,0.0001323,53.2176,222.0245,60.9531,354.5226,-0.047757,-0.01152099,0.0,0 STARLINK-4770,1 53849U 22114AH  22342.91668981 -.01152099  00000-0 -47757-1 0  9990,2 53849  53.2176 222.0245 0001323  60.9531 354.5226 15.26110502  1309,6865.59,94.358,488.36300000000006,486.547,0.0
53849.0,STARLINK-4770,PAYLOAD,2022-12-09 06:00:02,15.25324779,0.000133,53.2158,220.4888,63.5508,23.7597,-0.050642,-0.01189763,0.0,0 STARLINK-4770,1 53849U 22114AH  22343.25002315 -.01189763  00000-0 -50642-1 0  9996,2 53849  53.2158 220.4888 0001330  63.5508  23.7597 15.25324779 13317,6867.946999999999,94.406,490.726,488.899,0.0
53849.0,STARLINK-4770,PAYLOAD,2022-12-09 14:00:01,15.244895199999998,0.0001361,53.2163,218.9537,67.6812,50.4489,-0.050589,-0.01161313,0.0,0 STARLINK-4770,1 53849U 22114AH  22343.58334491 -.01161313  00000-0 -50589-1 0  9996,2 53849  53.2163 218.9537 0001361  67.6812  50.4489 15.24489520  1301,6870.456,94.458,493.256,491.386,0.0
53849.0,STARLINK-4770,PAYLOAD,2022-12-10 08:00:01,15.22652697,0.0001315,53.2174,215.5102,74.1931,199.8883,-0.05304,-0.01153139,0.0,0 STARLINK-4770,1 53849U 22114AH  22344.33335648 -.01153139  00000-0 -53040-1 0  9997,2 53849  53.2174 215.5102 0001315  74.1931 199.8883 15.22652697 13470,6875.98,94.572,498.749,496.941,0.0
